COSMOS 2404 (701)       
1 28112U 03056A   08205.61472553 -.00000028  00000-0  10000-3 0  3490
2 28112  64.1787 294.3019 0044180 102.4933  46.2095  2.13104300 35947
COSMOS 2403 (795)       
1 28114U 03056C   08205.34435747 -.00000027  00000-0  10000-3 0  2944
2 28114  64.1933 294.3346 0037678  83.0323 314.5517  2.13104487 35942
COSMOS 2411 (796)       
1 28508U 04053A   08205.15923142 -.00000025  00000-0  10000-3 0    57
2 28508  64.0702 293.1937 0011968 160.3993 226.3882  2.13103675 27800
COSMOS 2413 (712)       
1 28509U 04053B   08205.66709006 -.00000026  00000-0  10000-3 0    78
2 28509  64.0642 293.1485 0007329 160.8989 342.2272  2.13102954 27819
COSMOS 2412 (797)       
1 28510U 04053C   08206.07349440 -.00000028  00000-0  10000-3 0   160
2 28510  64.0768 293.1822 0004463 176.3548 233.6029  2.13102845 27827
COSMOS 2419 (714)       
1 28915U 05050A   08205.02173442  .00000087  00000-0  10000-3 0  7372
2 28915  64.8661 174.6602 0009824 322.5265  73.8254  2.13102005 20052
COSMOS 2418 (713)       
1 28916U 05050B   08205.24323534  .00000089  00000-0  10000-3 0  7255
2 28916  64.8843 174.6790 0021023 329.7433 188.4832  2.13103259 20051
COSMOS 2425 (716)       
1 29670U 06062A   08205.67955801 -.00000010  00000-0  10000-3 0  4580
2 29670  65.1749  54.1142 0024416 355.7319 172.8805  2.13103338 12261
COSMOS 2426 (717)       
1 29671U 06062B   08206.16711170 -.00000011  00000-0  10000-3 0  4632
2 29671  65.1907  54.1201 0018767 164.6618 243.7042  2.13103838 12283
COSMOS 2424 (715)       
1 29672U 06062C   08206.05522258 -.00000011  00000-0  10000-3 0  4784
2 29672  65.1766  54.1046 0016478 162.8343 339.8321  2.13103784 12272
COSMOS 2433 (720)       
1 32275U 07052A   08205.88764913  .00000091  00000-0  00000+0 0  2019
2 32275  64.8786 174.3672 0005242 271.2372 250.6027  2.13102462  5780
COSMOS 2432 (719)       
1 32276U 07052B   08205.98203534  .00000091  00000-0  00000+0 0  1916
2 32276  64.8914 174.3818 0016343 330.5558 218.5492  2.13102222  5788
COSMOS 2431 (718)       
1 32277U 07052C   08205.28458810  .00000089  00000-0  00000+0 0  1950
2 32277  64.8945 174.3970 0018824 198.8413 310.3823  2.13102359  5851
COSMOS 2434 (721)       
1 32393U 07065A   08204.87446755 -.00000009  00000-0  00000+0 0  1258
2 32393  64.7915  54.8266 0005809 111.8066 248.3275  2.13103309  4478
COSMOS 2435 (722)       
1 32394U 07065B   08204.17017822 -.00000007  00000-0  00000-0 0  1283
2 32394  64.7903  54.8531 0004202  76.2018 283.9196  2.13103481  4397
COSMOS 2436 (723)       
1 32395U 07065C   08206.16424619 -.00000012  00000-0  10000-3 0  1393
2 32395  64.8044  54.7778 0018632   2.0878 357.9815  2.13103520  4439
